{
"type": "FeatureCollection",
"crs": { "type": "name", "properties": { "name": "urn:ogc:def:crs:OGC:1.3:CRS84" } },
"features": [
{ "type": "Feature", "properties": { "from": "MATIMBA", "source": "GOOGLEEARTH", "to": "PHOKOJE", "voltage_kV": 400, "status": "Existing", "country": "Botswana", "id": 0 }, "geometry": { "type": "MultiLineString", "coordinates": [ [ [ 27.769847488987367, -22.049876818833166 ], [ 27.769910077708673, -22.047678790121768 ], [ 27.780198128586918, -22.000825617929195 ], [ 27.787902658043294, -21.965738056645364 ], [ 27.785757037511729, -21.958765262680298 ] ], [ [ 27.766472871219733, -22.286836343765156 ], [ 27.763933333238498, -22.257573730672139 ], [ 27.769847488987367, -22.049876818833166 ] ], [ [ 27.730678714574751, -22.827681003061603 ], [ 27.73850657149012, -22.786891307384046 ], [ 27.790818181527968, -22.67863045681073 ], [ 27.779285675072032, -22.434475845332887 ], [ 27.766472871219733, -22.286836343765156 ] ], [ [ 27.624415079746839, -23.12899032464761 ], [ 27.691802128253286, -23.032528574623875 ], [ 27.727490061979012, -22.844296555748574 ], [ 27.730678714574751, -22.827681003061603 ] ], [ [ 27.580542934267129, -23.257955549455907 ], [ 27.56836386523446, -23.209225300991761 ], [ 27.624415079746839, -23.12899032464761 ] ] ] } },
{ "type": "Feature", "properties": { "from": "MATIMBA", "source": "tx_lines.shp file provided by ESKOM, Dec 2006", "to": "PHOKOJE", "voltage_kV": 400, "status": "Existing", "country": "Botswana", "id": 1 }, "geometry": { "type": "MultiLineString", "coordinates": [ [ [ 27.580629045447974, -23.258300092969225 ], [ 27.580542945852869, -23.257955595811723 ], [ 27.5805429342671, -23.257955549455914 ] ] ] } },
{ "type": "Feature", "properties": { "from": "MOLEPOLOLE", "source": "BPA 2006 Annual Report", "to": "GABORONE", "voltage_kV": 132, "status": "Existing", "country": "Botswana", "id": 2 }, "geometry": { "type": "MultiLineString", "coordinates": [ [ [ 25.911945343017578, -24.646389007568359 ], [ 25.905169293611532, -24.620077115956956 ], [ 25.533332824707031, -24.416666030883789 ] ] ] } },
{ "type": "Feature", "properties": { "from": "SEKOMA", "source": "BPA 2006 Annual Report", "to": "JWANENG", "voltage_kV": 66, "status": "Existing", "country": "Botswana", "id": 3 }, "geometry": { "type": "MultiLineString", "coordinates": [ [ [ 23.877207008121854, -24.396336546858532 ], [ 24.041044590738721, -24.567273634793665 ], [ 24.728929500845929, -24.606403661214035 ] ] ] } },
{ "type": "Feature", "properties": { "from": null, "source": "BPA 2006 Annual Report", "to": "SOWA", "voltage_kV": 132, "status": "Existing", "country": "Botswana", "id": 4 }, "geometry": { "type": "MultiLineString", "coordinates": [ [ [ 26.232871578137381, -20.568808342774354 ], [ 26.516039463539222, -20.158419501661374 ] ] ] } },
{ "type": "Feature", "properties": { "from": "FRANCISTOWN", "source": "BPA 2006 Annual Report", "to": "MAUN", "voltage_kV": 132, "status": "Existing", "country": "Botswana", "id": 5 }, "geometry": { "type": "MultiLineString", "coordinates": [ [ [ 23.41839204, -19.99416096 ], [ 26.350117697907613, -19.991234273921147 ], [ 27.50024304, -21.17112102 ], [ 27.516666412353516, -21.166666030883789 ] ] ] } },
{ "type": "Feature", "properties": { "from": null, "source": "BPA 2006 Annual Report", "to": null, "voltage_kV": 132, "status": "Existing", "country": "Botswana", "id": 6 }, "geometry": { "type": "MultiLineString", "coordinates": [ [ [ 25.042563572246763, -17.996754834075716 ], [ 25.2469623620986, -17.792375274352178 ] ] ] } },
{ "type": "Feature", "properties": { "from": null, "source": "BPA 2006 Annual Report", "to": null, "voltage_kV": 22, "status": "Existing", "country": "Botswana", "id": 7 }, "geometry": { "type": "MultiLineString", "coordinates": [ [ [ 22.384408047485266, -26.077823208756353 ], [ 22.438842566343403, -26.227794786203514 ] ] ] } },
{ "type": "Feature", "properties": { "from": null, "source": "BPA 2006 Annual Report", "to": null, "voltage_kV": 22, "status": "Existing", "country": "Botswana", "id": 8 }, "geometry": { "type": "MultiLineString", "coordinates": [ [ [ 22.438842566343403, -26.227794786203514 ], [ 22.439093264737707, -26.228485480903238 ] ] ] } },
{ "type": "Feature", "properties": { "from": "GABORONE", "source": "BPA 2006 Annual Report", "to": null, "voltage_kV": 132, "status": "Existing", "country": "Botswana", "id": 9 }, "geometry": { "type": "MultiLineString", "coordinates": [ [ [ 25.911945343017578, -24.646389007568359 ], [ 26.089688570637204, -24.707628621452905 ] ] ] } },
{ "type": "Feature", "properties": { "from": "JWANENG", "source": "BPA 2006 Annual Report", "to": "GABORONE", "voltage_kV": 132, "status": "Existing", "country": "Botswana", "id": 10 }, "geometry": { "type": "MultiLineString", "coordinates": [ [ [ 24.728929500845929, -24.606403661214035 ], [ 24.766231323844714, -24.59956421685003 ], [ 25.25762597181722, -24.614279708294259 ], [ 25.451699689394445, -24.61998557527156 ], [ 25.460341532883433, -24.6202396499088 ], [ 25.89609419169415, -24.63305100189001 ], [ 25.911945343017578, -24.646389007568359 ] ] ] } },
{ "type": "Feature", "properties": { "from": "JWANENG", "source": "BPA 2006 Annual Report", "to": "GABORONE", "voltage_kV": 132, "status": "Existing", "country": "Botswana", "id": 11 }, "geometry": { "type": "MultiLineString", "coordinates": [ [ [ 24.728929500845929, -24.606403661214035 ], [ 24.76623275860409, -24.618217093939311 ], [ 25.447918396540942, -24.638398252223755 ], [ 25.449178156160677, -24.638435289803603 ], [ 25.895600566734501, -24.65366278807732 ], [ 25.911945343017578, -24.646389007568359 ] ] ] } },
{ "type": "Feature", "properties": { "from": "MORUPULE", "source": "BPA 2006 Annual Report", "to": "THAMAGA", "voltage_kV": 220, "status": "Planned", "country": "Botswana", "id": 12 }, "geometry": { "type": "MultiLineString", "coordinates": [ [ [ 27.03615, -22.520735 ], [ 26.512556164856655, -23.082242599470689 ], [ 25.68139892122656, -24.297125333762445 ], [ 25.5333333, -24.6833333 ] ] ] } },
{ "type": "Feature", "properties": { "from": null, "source": "BPA 2006 Annual Report", "to": null, "voltage_kV": 66, "status": "Existing", "country": "Botswana", "id": 13 }, "geometry": { "type": "MultiLineString", "coordinates": [ [ [ 27.832363660258046, -21.999595086122152 ], [ 27.641424677806121, -22.081873343299137 ] ] ] } },
{ "type": "Feature", "properties": { "from": "SELIBIPHIKWE", "source": "BPA 2006 Annual Report", "to": "ZANZIBAR", "voltage_kV": 66, "status": "Existing", "country": "Botswana", "id": 14 }, "geometry": { "type": "MultiLineString", "coordinates": [ [ [ 27.440918432984191, -21.369599733877372 ], [ 27.443320931983138, -21.37275698095182 ], [ 27.785757037511729, -21.958765262680298 ], [ 28.46944908, -22.55771502 ] ] ] } },
{ "type": "Feature", "properties": { "from": "FRANCISTOWN", "source": "BPA 2006 Annual Report", "to": null, "voltage_kV": 66, "status": "Existing", "country": "Botswana", "id": 15 }, "geometry": { "type": "MultiLineString", "coordinates": [ [ [ 27.516666412353516, -21.166666030883789 ], [ 27.513840289880022, -21.19886284124561 ], [ 27.517543386328782, -21.213275259176086 ], [ 27.521255459723051, -21.231301734202908 ], [ 27.524949579226245, -21.24210009503695 ], [ 27.528634721784016, -21.249284398774645 ], [ 27.536022960790476, -21.270881120442816 ], [ 27.543402222851512, -21.288863785014552 ], [ 27.54711429624578, -21.306890260041374 ], [ 27.554493558306746, -21.324872924613111 ], [ 27.55819665475552, -21.339285342543587 ], [ 27.558232562537512, -21.35374157092906 ], [ 27.561917705095283, -21.360925874666755 ], [ 27.561926682040777, -21.36453993176319 ], [ 27.573170625569645, -21.461988042000254 ] ] ] } },
{ "type": "Feature", "properties": { "from": "MORUPULE", "source": "BPA 2006 Annual Report", "to": "SELIBIPHIKWE", "voltage_kV": 220, "status": "Existing", "country": "Botswana", "id": 16 }, "geometry": { "type": "MultiLineString", "coordinates": [ [ [ 27.785757037511729, -21.958765262680298 ], [ 27.358440298314733, -22.122331250392332 ], [ 27.194152917843397, -22.420655402774688 ], [ 27.03615, -22.520735 ] ] ] } },
{ "type": "Feature", "properties": { "from": "SELIBIPHIKWE", "source": "BPA 2006 Annual Report", "to": "ORAPA", "voltage_kV": 220, "status": "Existing", "country": "Botswana", "id": 17 }, "geometry": { "type": "MultiLineString", "coordinates": [ [ [ 25.34806188, -21.32174997 ], [ 25.566913293500221, -21.233704460711678 ], [ 27.1953612128573, -21.912030816092976 ], [ 27.295999429358496, -21.953951441124875 ], [ 27.785757037511729, -21.958765262680298 ] ] ] } },
{ "type": "Feature", "properties": { "from": "SEROWE", "source": "BPA 2006 Annual Report", "to": "MMASHORO", "voltage_kV": 33, "status": "Existing", "country": "Botswana", "id": 18 }, "geometry": { "type": "MultiLineString", "coordinates": [ [ [ 26.45, -21.8666667 ], [ 26.795634535885334, -22.262047411205479 ], [ 26.71099308, -22.38929298 ] ] ] } },
{ "type": "Feature", "properties": { "from": "MAHALAPYE", "source": "BPA 2006 Annual Report", "to": "MOOKANE", "voltage_kV": 33, "status": "Existing", "country": "Botswana", "id": 19 }, "geometry": { "type": "MultiLineString", "coordinates": [ [ [ 26.82592092, -23.10898104 ], [ 26.719779327836733, -23.376847778284922 ], [ 26.789361235594271, -23.482860170291239 ], [ 26.604266835767433, -23.648358955022793 ], [ 26.65628316, -23.69260098 ] ] ] } },
{ "type": "Feature", "properties": { "from": null, "source": "BPA 2006 Annual Report", "to": null, "voltage_kV": 33, "status": "Existing", "country": "Botswana", "id": 20 }, "geometry": { "type": "MultiLineString", "coordinates": [ [ [ 28.75, -22.266666412353516 ], [ 28.803712329251578, -22.400551104629685 ] ] ] } },
{ "type": "Feature", "properties": { "from": null, "source": "BPA 2006 Annual Report", "to": null, "voltage_kV": 33, "status": "Existing", "country": "Botswana", "id": 21 }, "geometry": { "type": "MultiLineString", "coordinates": [ [ [ 29.005259364150447, -22.203853954757392 ], [ 28.833350344089354, -22.386615900965694 ], [ 28.46944908, -22.55771502 ], [ 28.365954515340469, -22.526978084123517 ], [ 28.086033827281199, -22.71359025828508 ], [ 28.022591606930931, -22.832437058160785 ], [ 27.5, -23.1833333 ] ] ] } },
{ "type": "Feature", "properties": { "from": null, "source": "BPA 2006 Annual Report", "to": null, "voltage_kV": 33, "status": "Existing", "country": "Botswana", "id": 22 }, "geometry": { "type": "MultiLineString", "coordinates": [ [ [ 25.613857989521406, -25.467394683890191 ], [ 25.317770735071388, -25.470417756731127 ] ] ] } },
{ "type": "Feature", "properties": { "from": "KANYE", "source": "BPA 2006 Annual Report", "to": "GABORONE", "voltage_kV": 33, "status": "Existing", "country": "Botswana", "id": 23 }, "geometry": { "type": "MultiLineString", "coordinates": [ [ [ 25.350000381469727, -24.983333587646484 ], [ 25.635395976493527, -25.011429582201576 ], [ 25.846605415563662, -24.665931941719883 ], [ 25.8967844180195, -24.665696428168147 ], [ 25.911945343017578, -24.646389007568359 ] ] ] } },
{ "type": "Feature", "properties": { "from": "LETHAKENG", "source": "BPA 2006 Annual Report", "to": "TAKATOKWANE", "voltage_kV": 33, "status": "Existing", "country": "Botswana", "id": 24 }, "geometry": { "type": "MultiLineString", "coordinates": [ [ [ 24.319278877974114, -24.012705218558757 ], [ 25.030284680098106, -24.085600031660288 ] ] ] } },
{ "type": "Feature", "properties": { "from": "LETHAKENG", "source": "BPA 2006 Annual Report", "to": "SALAJWE", "voltage_kV": 33, "status": "Existing", "country": "Botswana", "id": 25 }, "geometry": { "type": "MultiLineString", "coordinates": [ [ [ 24.730618772046462, -23.692676445475691 ], [ 24.965122938297803, -23.931223787007227 ], [ 25.030284680098106, -24.085600031660288 ] ] ] } },
{ "type": "Feature", "properties": { "from": "TSHANE", "source": "BPA 2006 Annual Report", "to": "KANG", "voltage_kV": 33, "status": "Existing", "country": "Botswana", "id": 26 }, "geometry": { "type": "MultiLineString", "coordinates": [ [ [ 21.9, -24.0333333 ], [ 22.773619908887657, -23.686505285103127 ] ] ] } },
{ "type": "Feature", "properties": { "from": "SELIBIPHIKWE", "source": "BPA 2006 Annual Report", "to": "RAKOPS", "voltage_kV": 33, "status": "Existing", "country": "Botswana", "id": 27 }, "geometry": { "type": "MultiLineString", "coordinates": [ [ [ 24.377882293932672, -21.030319525850235 ], [ 24.57990084064101, -21.158016006290389 ], [ 24.843902516863501, -21.140405425138638 ], [ 25.34806188, -21.32174997 ] ] ] } },
{ "type": "Feature", "properties": { "from": "CHARLESHILL", "source": "BPA 2006 Annual Report", "to": "NCOJANE", "voltage_kV": 33, "status": "Existing", "country": "Botswana", "id": 28 }, "geometry": { "type": "MultiLineString", "coordinates": [ [ [ 20.071771544271442, -22.275202992048101 ], [ 20.266666412353516, -23.166666030883789 ] ] ] } },
{ "type": "Feature", "properties": { "from": "MAUN", "source": "BPA 2006 Annual Report", "to": "TSAU", "voltage_kV": 33, "status": "Existing", "country": "Botswana", "id": 29 }, "geometry": { "type": "MultiLineString", "coordinates": [ [ [ 22.45, -20.15 ], [ 22.716699600219727, -20.466699600219727 ], [ 22.94601797898958, -20.378805040502709 ], [ 23.41839204, -19.99416096 ] ] ] } },
{ "type": "Feature", "properties": { "from": null, "source": "BPA 2006 Annual Report", "to": null, "voltage_kV": 66, "status": "Existing", "country": "Botswana", "id": 30 }, "geometry": { "type": "MultiLineString", "coordinates": [ [ [ 27.34899944613149, -20.984505597710278 ], [ 27.516666412353516, -21.166666030883789 ] ] ] } },
{ "type": "Feature", "properties": { "from": "GABORONE", "source": "BPA 2006 Annual Report", "to": "LOBATSE", "voltage_kV": 132, "status": "Existing", "country": "Botswana", "id": 31 }, "geometry": { "type": "MultiLineString", "coordinates": [ [ [ 25.911945343017578, -24.646389007568359 ], [ 25.828648773267386, -24.750098165126669 ], [ 25.708005523457064, -25.069435636251193 ], [ 25.669617418907027, -25.21335608197862 ] ] ] } },
{ "type": "Feature", "properties": { "from": "SEKOMA", "source": "BPA 2006 Annual Report", "to": "DUTLWE", "voltage_kV": 33, "status": "Existing", "country": "Botswana", "id": 32 }, "geometry": { "type": "MultiLineString", "coordinates": [ [ [ 23.8833333, -24.4 ], [ 23.9, -23.9833333 ] ] ] } },
{ "type": "Feature", "properties": { "from": "THAMAGA", "source": "BPA 2006 Annual Report", "to": "KANYE", "voltage_kV": 132, "status": "Existing", "country": "Botswana", "id": 33 }, "geometry": { "type": "MultiLineString", "coordinates": [ [ [ 25.5333333, -24.6833333 ], [ 25.350000381469727, -24.983333587646484 ] ] ] } },
{ "type": "Feature", "properties": { "from": "THAMAGA", "source": "BPA 2006 Annual Report", "to": "GABORONE", "voltage_kV": 132, "status": "Existing", "country": "Botswana", "id": 34 }, "geometry": { "type": "MultiLineString", "coordinates": [ [ [ 25.911945343017578, -24.646389007568359 ], [ 25.894365644483614, -24.659575843417123 ], [ 25.844759181060176, -24.659509788903748 ], [ 25.5333333, -24.6833333 ] ] ] } },
{ "type": "Feature", "properties": { "from": null, "source": "BPA 2006 Annual Report", "to": null, "voltage_kV": 33, "status": "Existing", "country": "Botswana", "id": 35 }, "geometry": { "type": "MultiLineString", "coordinates": [ [ [ 25.619925401380883, -25.299607172593149 ], [ 25.513292799691378, -25.250200686820975 ] ] ] } },
{ "type": "Feature", "properties": { "from": null, "source": "BPA 2006 Annual Report", "to": null, "voltage_kV": 33, "status": "Existing", "country": "Botswana", "id": 36 }, "geometry": { "type": "MultiLineString", "coordinates": [ [ [ 25.63937406681902, -25.363188509310465 ], [ 25.550880197283142, -25.313487022537014 ] ] ] } },
{ "type": "Feature", "properties": { "from": null, "source": "BPA 2006 Annual Report", "to": null, "voltage_kV": 33, "status": "Existing", "country": "Botswana", "id": 37 }, "geometry": { "type": "MultiLineString", "coordinates": [ [ [ 28.410147028153339, -21.965647181179897 ], [ 28.569358068476912, -22.05881401400654 ] ] ] } },
{ "type": "Feature", "properties": { "from": "MORUPULE", "source": "BPA 2006 Annual Report", "to": "SEROWE", "voltage_kV": 33, "status": "Existing", "country": "Botswana", "id": 38 }, "geometry": { "type": "MultiLineString", "coordinates": [ [ [ 26.71099308, -22.38929298 ], [ 27.03615, -22.520735 ] ] ] } },
{ "type": "Feature", "properties": { "from": "SHAKAWE", "source": "BPA 2006 Annual Report", "to": "GUMARE", "voltage_kV": 33, "status": "Existing", "country": "Botswana", "id": 39 }, "geometry": { "type": "MultiLineString", "coordinates": [ [ [ 22.1616, -19.3691 ], [ 21.782906758332608, -18.284771629030146 ], [ 21.759178371591801, -18.260796154832267 ] ] ] } },
{ "type": "Feature", "properties": { "from": "CHARLESHILL", "source": "BPA 2006 Annual Report", "to": "GHANTSI", "voltage_kV": 132, "status": "Existing", "country": "Botswana", "id": 40 }, "geometry": { "type": "MultiLineString", "coordinates": [ [ [ 20.834412913802794, -22.160515421930029 ], [ 21.639999389648438, -21.700000762939453 ] ], [ [ 20.838071125524039, -22.156857554378632 ], [ 20.071771544271485, -22.275202992048094 ], [ 19.999999933147365, -22.281970435270011 ] ] ] } },
{ "type": "Feature", "properties": { "from": null, "source": "BPA 2006 Annual Report", "to": null, "voltage_kV": 132, "status": "Existing", "country": "Botswana", "id": 41 }, "geometry": { "type": "MultiLineString", "coordinates": [ [ [ 19.9999999331474, -22.281970435270001 ], [ 19.999998092651424, -22.28197060881288 ] ] ] } },
{ "type": "Feature", "properties": { "from": "Auas", "source": "Inga Southern Highway - WESTCOR", "to": "Gaborone", "voltage_kV": 500, "status": "Planned", "country": "Botswana", "id": 42 }, "geometry": { "type": "MultiLineString", "coordinates": [ [ [ 19.9999999331474, -23.182576149430197 ], [ 22.492170049804145, -23.74869661757408 ], [ 22.601714852654048, -23.805497626459179 ] ], [ [ 22.601714852654048, -23.805497626459179 ], [ 22.96664164405464, -23.994718925703925 ] ], [ [ 22.96664164405464, -23.994718925703925 ], [ 23.596820817651974, -24.321478497198875 ] ], [ [ 23.596820817651974, -24.321478497198875 ], [ 24.046928099645321, -24.554867458232451 ], [ 25.25762597181722, -24.614279708294259 ] ], [ [ 25.25762597181722, -24.614279708294259 ], [ 25.451181376436111, -24.623778000448212 ] ], [ [ 25.451181376436111, -24.623778000448212 ], [ 25.457701872227688, -24.624097978979083 ] ], [ [ 25.457701872227688, -24.624097978979083 ], [ 25.9119444, -24.646388900000012 ] ] ] } },
{ "type": "Feature", "properties": { "from": "Auas", "source": "Inga Southern Highway - WESTCOR", "to": "Gaborone", "voltage_kV": 500, "status": "Planned", "country": "Botswana", "id": 43 }, "geometry": { "type": "MultiLineString", "coordinates": [ [ [ 19.999998092651424, -23.182575731343793 ], [ 19.9999999331474, -23.182576149430197 ] ] ] } },
{ "type": "Feature", "properties": { "from": "Gaborone", "source": "Inga Southern Highway - WESTCOR", "to": "Pegasus", "voltage_kV": 500, "status": "Planned", "country": "Botswana", "id": 44 }, "geometry": { "type": "MultiLineString", "coordinates": [ [ [ 25.911944400000039, -24.646388899999977 ], [ 26.074170038412262, -24.710376610460571 ] ] ] } },
{ "type": "Feature", "properties": { "from": "Francistown", "source": "BPA 2006 Annual Report", "to": "Bulawayo", "voltage_kV": 220, "status": "Existing", "country": "Botswana", "id": 45 }, "geometry": { "type": "MultiLineString", "coordinates": [ [ [ 27.689396521215258, -20.939951607899502 ], [ 27.689394147925952, -20.939954568943051 ], [ 27.689227982752072, -20.940161885558155 ], [ 27.674604112812858, -20.958407412860481 ], [ 27.663647431540198, -20.97660912970764 ], [ 27.6490235616007, -20.99485465700991 ], [ 27.638066880327983, -21.013056373857069 ], [ 27.544287871785343, -21.131716224011711 ], [ 27.516666412353629, -21.166666030883789 ] ] ] } },
{ "type": "Feature", "properties": { "from": "Francistown", "source": "BPA 2006 Annual Report", "to": "Bulawayo", "voltage_kV": 220, "status": "Existing", "country": "Botswana", "id": 46 }, "geometry": { "type": "MultiLineString", "coordinates": [ [ [ 27.689396576107292, -20.939951539413258 ], [ 27.689396521215272, -20.939951607899495 ] ] ] } },
{ "type": "Feature", "properties": { "from": "PHOKOJE", "source": "tx_lines.shp file provided by ESKOM, Dec 2006", "to": "INSUKAMINI", "voltage_kV": 400, "status": "Existing", "country": "Botswana", "id": 47 }, "geometry": { "type": "MultiLineString", "coordinates": [ [ [ 27.905767325074791, -21.313541331508198 ], [ 27.905891587340292, -21.313240089652517 ] ] ] } },
{ "type": "Feature", "properties": { "from": "PHOKOJE", "source": "tx_lines.shp file provided by ESKOM, Dec 2006", "to": "INSUKAMINI", "voltage_kV": 400, "status": "Existing", "country": "Botswana", "id": 48 }, "geometry": { "type": "MultiLineString", "coordinates": [ [ [ 27.905767325074791, -21.313541331508198 ], [ 27.905891587340292, -21.313240089652517 ] ] ] } },
{ "type": "Feature", "properties": { "from": "MORUPULE", "source": "BPA 2006 Annual Report", "to": "GABORONE", "voltage_kV": 220, "status": "Existing", "country": "Botswana", "id": 49 }, "geometry": { "type": "MultiLineString", "coordinates": [ [ [ 27.03615, -22.520735 ], [ 26.59932622819769, -23.126565121604244 ], [ 25.996018954601439, -24.32879115054822 ], [ 26.058813833649936, -24.495704135880466 ], [ 26.07723572199982, -24.544670746319404 ], [ 25.964305687261685, -24.659587236608523 ] ] ] } },
{ "type": "Feature", "properties": { "from": "Gaborone", "source": "Inga Southern Highway - WESTCOR", "to": "Pegasus", "voltage_kV": 500, "status": "Planned", "country": "Botswana", "id": 50 }, "geometry": { "type": "MultiLineString", "coordinates": [ [ [ 26.074170038412298, -24.710376610460557 ], [ 26.07508264931846, -24.710736577497816 ] ] ] } },
{ "type": "Feature", "properties": { "from": "KANG", "source": "BPA 2006 Annual Report", "to": "SEKOMA", "voltage_kV": 66, "status": "Existing", "country": "Botswana", "id": 51 }, "geometry": { "type": "MultiLineString", "coordinates": [ [ [ 22.773619908887657, -23.686505285103127 ], [ 22.96664164405464, -23.994718925703925 ], [ 23.201576305826194, -24.344104431841803 ], [ 23.877207008121854, -24.396336546858532 ] ] ] } },
{ "type": "Feature", "properties": { "from": "MOLEPOLOLE", "source": "BPA 2006 Annual Report", "to": "THAMAGA", "voltage_kV": 33, "status": "Existing", "country": "Botswana", "id": 52 }, "geometry": { "type": "MultiLineString", "coordinates": [ [ [ 25.533332824707031, -24.416666030883789 ], [ 25.5333333, -24.6833333 ] ] ] } },
{ "type": "Feature", "properties": { "from": "KANYE", "source": "BPA 2006 Annual Report", "to": "MOKATAKO", "voltage_kV": 33, "status": "Existing", "country": "Botswana", "id": 53 }, "geometry": { "type": "MultiLineString", "coordinates": [ [ [ 25.350000381469727, -24.983333587646484 ], [ 25.312032109133263, -25.05256701073337 ], [ 25.263213691668728, -25.315730870982787 ] ] ] } },
{ "type": "Feature", "properties": { "from": "GABORONE", "source": "BPA 2006 Annual Report", "to": "RAKHUNA", "voltage_kV": 33, "status": "Existing", "country": "Botswana", "id": 54 }, "geometry": { "type": "MultiLineString", "coordinates": [ [ [ 25.911945343017578, -24.646389007568359 ], [ 25.906299348198019, -24.674406521893818 ], [ 25.845593006566958, -24.750769223871206 ], [ 25.8484000249587, -24.777424143819538 ] ], [ [ 25.850591806115631, -24.798236886427215 ], [ 25.85621988, -24.85168002 ], [ 25.66920143783754, -25.21684201339238 ], [ 25.614355192855651, -25.282552197953549 ], [ 25.640223006323975, -25.361754780888447 ], [ 25.57492704, -25.62338403 ] ] ] } },
{ "type": "Feature", "properties": { "from": "MORUPULE", "source": "BPA 2006 Annual Report", "to": "FRANCISTOWN", "voltage_kV": 220, "status": "Existing", "country": "Botswana", "id": 55 }, "geometry": { "type": "MultiLineString", "coordinates": [ [ [ 27.516666412353487, -21.166666030883793 ], [ 27.510138579301241, -21.185008365119447 ], [ 27.443320931983138, -21.37275698095182 ], [ 27.426375355554413, -21.420371775047094 ], [ 27.422735097724214, -21.431257756791307 ], [ 27.422762028560712, -21.442099928080523 ], [ 27.419121770730513, -21.452985909824736 ], [ 27.415481512900314, -21.463871891568949 ], [ 27.415508443736812, -21.474714062858165 ], [ 27.411868185906613, -21.485600044602378 ], [ 27.408236905021823, -21.500100083443026 ], [ 27.404614601082713, -21.518214179380021 ], [ 27.404641531919211, -21.529056350669148 ], [ 27.400992297143517, -21.536328275317015 ], [ 27.397361016258728, -21.550828314157663 ], [ 27.397387947095311, -21.56167048544679 ], [ 27.393756666210621, -21.576170524287438 ], [ 27.390116408380422, -21.587056506031651 ], [ 27.386485127495632, -21.601556544872299 ], [ 27.382853846610942, -21.616056583712858 ], [ 27.379231542671747, -21.634170679649941 ], [ 27.375600261787042, -21.6486707184905 ], [ 27.371968980902352, -21.663170757331148 ], [ 27.36467948829646, -21.681328663723228 ], [ 27.361057184357264, -21.699442759660222 ], [ 27.357434880418054, -21.717556855597216 ], [ 27.350145387812077, -21.735714761989385 ], [ 27.346523083872881, -21.753828857926379 ], [ 27.342900779933686, -21.771942953863373 ], [ 27.335611287327794, -21.790100860255453 ], [ 27.331997960334093, -21.811829013288882 ], [ 27.3247084677282, -21.829986919680962 ], [ 27.321086163789005, -21.848101015617956 ], [ 27.313805648128522, -21.869872979106383 ], [ 27.312307202866165, -21.877366271136541 ], [ 27.310183344189326, -21.887987075043466 ], [ 27.302902828528943, -21.909759038531892 ], [ 27.299280524589733, -21.927873134468886 ], [ 27.29200000892935, -21.949645097957401 ], [ 27.288377704990054, -21.967759193894395 ], [ 27.281097189329671, -21.98953115738291 ], [ 27.277474885390475, -22.007645253319904 ], [ 27.270185392784583, -22.025803159711984 ], [ 27.266572065790882, -22.047531312745324 ], [ 27.259282573184905, -22.065689219137493 ], [ 27.255660269245709, -22.083803315074487 ], [ 27.248379753585311, -22.105575278562913 ], [ 27.244757449646116, -22.123689374499996 ], [ 27.237467957040224, -22.141847280892076 ], [ 27.233845653101028, -22.15996137682907 ], [ 27.230214372216324, -22.174461415669718 ], [ 27.222924879610346, -22.192619322061798 ], [ 27.219302575671151, -22.210733417998792 ], [ 27.215671294786461, -22.22523345683944 ], [ 27.212040013901756, -22.239733495679999 ], [ 27.204750521295864, -22.25789140207208 ], [ 27.201119240411089, -22.272391440912727 ], [ 27.19747898258089, -22.283277422656941 ], [ 27.193847701696185, -22.297777461497589 ], [ 27.190207443866001, -22.308663443241802 ], [ 27.186576162981297, -22.32316348208245 ], [ 27.182935905151098, -22.334049463826663 ], [ 27.182953859042101, -22.341277578019444 ], [ 27.179313601211902, -22.352163559763746 ], [ 27.175664366436209, -22.359435484411524 ], [ 27.172033085551419, -22.373935523252172 ], [ 27.168392827721235, -22.384821504996385 ], [ 27.168410781612224, -22.392049619189166 ], [ 27.164752569891036, -22.395707486740687 ], [ 27.03615, -22.520735 ] ] ] } },
{ "type": "Feature", "properties": { "from": "MORUPULE", "source": "BPA 2006 Annual Report", "to": "SEROWE", "voltage_kV": 66, "status": "Planned", "country": "Botswana", "id": 56 }, "geometry": { "type": "MultiLineString", "coordinates": [ [ [ 26.71099308, -22.38929298 ], [ 26.714613657239425, -22.401542723858505 ], [ 27.023418731074244, -22.526374644062138 ], [ 27.03615, -22.520735 ] ] ] } },
{ "type": "Feature", "properties": { "from": "SHOSHONG", "source": "BPA 2006 Annual Report", "to": "SOJWE", "voltage_kV": 33, "status": "Existing", "country": "Botswana", "id": 57 }, "geometry": { "type": "MultiLineString", "coordinates": [ [ [ 26.516666412353516, -23.033332824707031 ], [ 25.762804670839529, -23.453335334797295 ] ] ] } },
{ "type": "Feature", "properties": { "from": "MAHALAPYE", "source": "BPA 2006 Annual Report", "to": "SHOSHONG", "voltage_kV": 33, "status": "Existing", "country": "Botswana", "id": 58 }, "geometry": { "type": "MultiLineString", "coordinates": [ [ [ 26.82592092, -23.10898104 ], [ 26.763157205652192, -23.123338056076989 ], [ 26.642175887432018, -23.139240029480277 ], [ 26.592439654781689, -23.14028817480332 ], [ 26.538544154996554, -23.097630617622105 ], [ 26.516666412353516, -23.033332824707031 ] ] ] } },
{ "type": "Feature", "properties": { "from": "MORUPULE", "source": "BPA 2006 Annual Report", "to": "MAHALAPYE", "voltage_kV": 33, "status": "Existing", "country": "Botswana", "id": 59 }, "geometry": { "type": "MultiLineString", "coordinates": [ [ [ 27.03615, -22.520735 ], [ 27.055158826327961, -22.566882483923308 ], [ 27.040849149481303, -22.711620009599006 ], [ 27.037857101652072, -22.736484660364994 ], [ 27.02647663401607, -22.831059135600015 ], [ 26.924190336949877, -22.991304340583337 ], [ 26.906539615993495, -22.994679434555994 ], [ 26.843548094063905, -23.00672439898079 ], [ 26.82592092, -23.10898104 ] ] ] } },
{ "type": "Feature", "properties": { "from": "PALAPYE", "source": "BPA 2006 Annual Report", "to": "MAHALAPYE", "voltage_kV": 66, "status": "Existing", "country": "Botswana", "id": 60 }, "geometry": { "type": "MultiLineString", "coordinates": [ [ [ 27.12973212, -22.55894199 ], [ 27.037857101652072, -22.736484660364994 ], [ 26.82592092, -23.10898104 ] ] ] } },
{ "type": "Feature", "properties": { "from": "PALAPYE", "source": "BPA 2006 Annual Report", "to": "MARTINSDRIFT", "voltage_kV": 66, "status": "Existing", "country": "Botswana", "id": 61 }, "geometry": { "type": "MultiLineString", "coordinates": [ [ [ 27.9333333, -22.9833333 ], [ 27.129732119999971, -22.558941989999937 ] ] ] } },
{ "type": "Feature", "properties": { "from": "PHOKOJE", "source": "GOOGLEEARTH", "to": "INSUKAMINI", "voltage_kV": 400, "status": "Existing", "country": "Botswana", "id": 62 }, "geometry": { "type": "MultiLineString", "coordinates": [ [ [ 27.785757037511729, -21.958765262680298 ], [ 27.817719762072144, -21.883708705452008 ], [ 28.030496153606325, -21.581751314915778 ] ] ] } },
{ "type": "Feature", "properties": { "from": "SEOWANE", "source": "BPA 2006 Annual Report", "to": "SEMOLALE", "voltage_kV": 33, "status": "Existing", "country": "Botswana", "id": 63 }, "geometry": { "type": "MultiLineString", "coordinates": [ [ [ 28.738904040000023, -21.853797029999953 ], [ 28.595569232005062, -21.815153783092967 ], [ 28.172105134442486, -22.158848063962203 ], [ 27.966667175292969, -22.183332443237305 ], [ 27.55089727094358, -22.378457291508507 ], [ 27.646488169341357, -22.675471868673029 ] ] ] } },
{ "type": "Feature", "properties": { "from": "MOLEPOLOLE", "source": "BPA 2006 Annual Report", "to": "LENTSWELETAU", "voltage_kV": 33, "status": "Existing", "country": "Botswana", "id": 64 }, "geometry": { "type": "MultiLineString", "coordinates": [ [ [ 25.533332824707031, -24.416666030883789 ], [ 25.851873404242642, -24.258255071926644 ] ] ] } },
{ "type": "Feature", "properties": { "from": "MOLEPOLOLE", "source": "BPA 2006 Annual Report", "to": "LETHAKENG", "voltage_kV": 33, "status": "Existing", "country": "Botswana", "id": 65 }, "geometry": { "type": "MultiLineString", "coordinates": [ [ [ 25.030284680098106, -24.085600031660288 ], [ 25.203322701129991, -24.103340497581801 ], [ 25.218260764162132, -24.211586968652995 ], [ 25.533332824707031, -24.416666030883789 ] ] ] } },
{ "type": "Feature", "properties": { "from": null, "source": "BPA 2006 Annual Report", "to": null, "voltage_kV": 66, "status": "Existing", "country": "Botswana", "id": 66 }, "geometry": { "type": "MultiLineString", "coordinates": [ [ [ 27.516666412353516, -21.166666030883789 ], [ 27.673624073672986, -21.342335134960454 ] ] ] } },
{ "type": "Feature", "properties": { "from": "FRANCISTOWN", "source": "BPA 2006 Annual Report", "to": "TUTUME", "voltage_kV": 66, "status": "Existing", "country": "Botswana", "id": 67 }, "geometry": { "type": "MultiLineString", "coordinates": [ [ [ 27.516666412353516, -21.166666030883789 ], [ 27.629009705051129, -20.8471745577727 ], [ 27.517734881283303, -20.643672546981083 ], [ 27.313601972479205, -20.560513961113621 ], [ 27.049139400799092, -20.501305922677822 ] ] ] } }
]
}